NORAD_CAT_ID,OBJECT_NAME,OBJECT_TYPE,EPOCH,MEAN_MOTION,ECCENTRICITY,INCLINATION,RA_OF_ASC_NODE,ARG_OF_PERICENTER,MEAN_ANOMALY,BSTAR,MEAN_MOTION_DOT,MEAN_MOTION_DDOT,TLE_LINE0,TLE_LINE1,TLE_LINE2,SEMIMAJOR_AXIS,PERIOD,APOGEE,PERIGEE,DECAYED
54201.0,STARLINK-5199,PAYLOAD,2023-12-01 16:12:52,15.08847062,0.0001497,53.2178,115.794,91.8125,268.3038,9.1917e-05,1.175e-05,0.0,0 STARLINK-5199,1 54201U 22141AW  23335.67560638  .00001175  00000-0  91917-4 0  9994,2 54201  53.2178 115.7940 0001497  91.8125 268.3038 15.08847062 60843,6917.859,95.437,540.759,538.688,0.0
54201.0,STARLINK-5199,PAYLOAD,2023-12-02 14:28:00,15.09046648,0.0001488,53.2182,111.6299,111.795,248.3201,0.0017827,0.00028359,0.0,0 STARLINK-5199,1 54201U 22141AW  23336.60277936  .00028359  00000-0  17827-2 0  9993,2 54201  53.2182 111.6299 0001488 111.7950 248.3201 15.09046648 60985,6917.249,95.424,540.143,538.085,0.0
54201.0,STARLINK-5199,PAYLOAD,2023-12-02 19:13:56,15.09193201,0.0003082,53.2172,110.7354,20.7917,339.32,0.0028964,0.00046565,0.0,0 STARLINK-5199,1 54201U 22141AW  23336.80134662  .00046565  00000-0  28964-2 0  9996,2 54201  53.2172 110.7354 0003082  20.7917 339.3200 15.09193201 61248,6916.801,95.415,540.798,536.534,0.0
54201.0,STARLINK-5199,PAYLOAD,2023-12-02 22:24:35,15.09255946,9.19e-05,53.2182,110.141,90.2792,269.8305,0.0033485,0.00054026,0.0,0 STARLINK-5199,1 54201U 22141AW  23336.93374382  .00054026  00000-0  33485-2 0  9990,2 54201  53.2182 110.1410 0000919  90.2792 269.8305 15.09255946 61030,6916.609,95.411,539.11,537.839,0.0
54201.0,STARLINK-5199,PAYLOAD,2023-12-02 23:59:53,15.09310039,0.0001625,53.2181,109.8404,161.7675,198.3376,0.0037824,0.00061217,0.0,0 STARLINK-5199,1 54201U 22141AW  23336.99992927  .00061217  00000-0  37824-2 0  9998,2 54201  53.2181 109.8404 0001625 161.7675 198.3376 15.09310039 61271,6916.444,95.408,539.433,537.185,0.0
54201.0,STARLINK-5199,PAYLOAD,2023-12-03 14:17:56,15.09729806,0.0002813,53.2178,107.1626,145.4318,214.6858,0.009327,0.00155183,0.0,0 STARLINK-5199,1 54201U 22141AW  23337.59579645  .00155183  00000-0  93270-2 0  9996,2 54201  53.2178 107.1626 0002813 145.4318 214.6858 15.09729806 61135,6915.162,95.381,538.972,535.082,0.0
54201.0,STARLINK-5199,PAYLOAD,2023-12-04 06:00:00,15.10441057,0.0001246,53.216,104.2206,93.5754,225.3478,0.0039708,0.00066366,0.0,0 STARLINK-5199,1 54201U 22141AW  23338.25001157  .00066366  00000-0  39708-2 0  9998,2 54201  53.2160 104.2206 0001246  93.5754 225.3478 15.10441057 61468,6912.991,95.336,535.717,533.995,0.0
54201.0,STARLINK-5199,PAYLOAD,2023-12-04 16:00:01,15.10487413,0.0001322,53.2159,102.3471,80.4799,345.4389,-0.0023104,-0.00038561,0.0,0 STARLINK-5199,1 54201U 22141AW  23338.66668981 -.00038561  00000-0 -23104-2 0  9998,2 54201  53.2159 102.3471 0001322  80.4799 345.4389 15.10487413  5737,6912.849,95.333,535.628,533.801,0.0
54201.0,STARLINK-5199,PAYLOAD,2023-12-04 22:00:00,15.10474453,0.0001268,53.2154,101.2216,75.6722,270.3599,3.3791e-06,-2.36e-06,0.0,0 STARLINK-5199,1 54201U 22141AW  23338.91667824 -.00000236  00000-0  33791-5 0  9994,2 54201  53.2154 101.2216 0001268  75.6722 270.3599 15.10474453 61560,6912.889,95.334,535.631,533.877,0.0
54201.0,STARLINK-5199,PAYLOAD,2023-12-05 14:00:01,15.10520803,0.0001294,53.2154,98.2214,80.8119,292.3416,-0.0051403,-0.00084963,0.0,0 STARLINK-5199,1 54201U 22141AW  23339.58334491 -.00084963  00000-0 -51403-2 0  9996,2 54201  53.2154  98.2214 0001294  80.8119 292.3416 15.10520803  5820,6912.748,95.331,535.507,533.718,0.0
54201.0,STARLINK-5199,PAYLOAD,2023-12-05 22:00:00,15.10470933,0.0001241,53.215,96.721,80.4443,306.2922,-8.9943e-05,-1.789e-05,0.0,0 STARLINK-5199,1 54201U 22141AW  23339.91667824 -.00001789  00000-0 -89943-4 0  9999,2 54201  53.2150  96.7210 0001241  80.4443 306.2922 15.10470933  5660,6912.9,95.335,535.623,533.907,0.0
54201.0,STARLINK-5199,PAYLOAD,2023-12-06 06:00:00,15.1047665,0.0001331,53.215,95.2193,90.8032,309.5034,0.0036572,0.00061116,0.0,0 STARLINK-5199,1 54201U 22141AW  23340.25001157  .00061116  00000-0  36572-2 0  9995,2 54201  53.2150  95.2193 0001331  90.8032 309.5034 15.10476650 61768,6912.882,95.334,535.667,533.827,0.0
54201.0,STARLINK-5199,PAYLOAD,2023-12-06 14:00:01,15.10553403,0.0001401,53.215,93.7207,86.4327,327.4547,-0.0089239,-0.00146171,0.0,0 STARLINK-5199,1 54201U 22141AW  23340.58334491 -.00146171  00000-0 -89239-2 0  9996,2 54201  53.2150  93.7207 0001401  86.4327 327.4547 15.10553403 61819,6912.648,95.329,535.482,533.545,0.0
54201.0,STARLINK-5199,PAYLOAD,2023-12-06 22:00:00,15.1044925,0.0001344,53.2148,92.2201,90.4878,336.9947,-0.00049686,-8.548e-05,0.0,0 STARLINK-5199,1 54201U 22141AW  23340.91667824 -.00008548  00000-0 -49686-3 0  9990,2 54201  53.2148  92.2201 0001344  90.4878 336.9947 15.10449250 61864,6912.966,95.336,535.76,533.902,0.0
54201.0,STARLINK-5199,PAYLOAD,2023-12-07 14:00:01,15.1046875,0.0001416,53.2151,89.2201,90.0588,4.5403,-0.0015073,-0.00025292,0.0,0 STARLINK-5199,1 54201U 22141AW  23341.58335648 -.00025292  00000-0 -15073-2 0  9997,2 54201  53.2151  89.2201 0001416  90.0588   4.5403 15.10468750  5823,6912.906,95.335,535.75,533.793,0.0
54201.0,STARLINK-5199,PAYLOAD,2023-12-07 22:00:00,15.1047247,0.0001343,53.2151,87.7194,86.6798,21.3937,-0.00071568,-0.00012186,0.0,0 STARLINK-5199,1 54201U 22141AW  23341.91667824 -.00012186  00000-0 -71568-3 0  9998,2 54201  53.2151  87.7194 0001343  86.6798  21.3937 15.10472470 62017,6912.895,95.334,535.688,533.832,0.0
54201.0,STARLINK-5199,PAYLOAD,2023-12-08 13:24:17,15.10371737,0.0002099,53.2174,84.8275,123.9212,236.198,0.0013252,0.00021773,0.0,0 STARLINK-5199,1 54201U 22141AW  23342.55853573  .00021773  00000-0  13252-2 0  9992,2 54201  53.2174  84.8275 0002099 123.9212 236.1980 15.10371737 61887,6913.202,95.341,536.519,533.616,0.0
54201.0,STARLINK-5199,PAYLOAD,2023-12-08 16:34:49,15.10487665,0.0001764,53.2169,84.2303,126.5925,233.5231,-0.00012725,-2.411e-05,0.0,0 STARLINK-5199,1 54201U 22141AW  23342.69084644 -.00002411  00000-0 -12725-3 0  9997,2 54201  53.2169  84.2303 0001764 126.5925 233.5231 15.10487665 62132,6912.849,95.333,535.933,533.494,0.0
54201.0,STARLINK-5199,PAYLOAD,2023-12-09 11:38:12,15.10476083,0.0001578,53.2174,80.6586,116.0283,244.0872,0.00013073,1.884e-05,0.0,0 STARLINK-5199,1 54201U 22141AW  23343.48486673  .00001884  00000-0  13073-3 0  9991,2 54201  53.2174  80.6586 0001578 116.0283 244.0872 15.10476083 62258,6912.884,95.334,535.84,533.658,0.0
54201.0,STARLINK-5199,PAYLOAD,2023-12-09 13:13:29,15.10475625,0.0001515,53.2176,80.3613,113.5642,246.551,0.00013039,1.879e-05,0.0,0 STARLINK-5199,1 54201U 22141AW  23343.55103547  .00001879  00000-0  13039-3 0  9991,2 54201  53.2176  80.3613 0001515 113.5642 246.5510 15.10475625 62033,6912.885,95.334,535.798,533.703,0.0
54201.0,STARLINK-5199,PAYLOAD,2023-12-09 16:24:03,15.10476236,0.0001509,53.2175,79.7658,112.7622,247.353,0.00013224,1.909e-05,0.0,0 STARLINK-5199,1 54201U 22141AW  23343.68337171  .00001909  00000-0  13224-3 0  9997,2 54201  53.2175  79.7658 0001509 112.7622 247.3530 15.10476236 62057,6912.884,95.334,535.792,533.705,0.0
54201.0,STARLINK-5199,PAYLOAD,2023-12-10 06:41:47,15.10358445,0.0001495,53.2183,77.088,147.3162,212.7924,-0.00082415,-0.00013942,0.0,0 STARLINK-5199,1 54201U 22141AW  23344.27901657 -.00013942  00000-0 -82415-3 0  9999,2 54201  53.2183  77.0880 0001495 147.3162 212.7924 15.10358445 62370,6913.243,95.342,536.142,534.074,0.0
54201.0,STARLINK-5199,PAYLOAD,2023-12-10 19:24:41,15.09940107,0.0001312,53.218,74.7075,115.5778,244.535,-0.003929,-0.00064165,0.0,0 STARLINK-5199,1 54201U 22141AW  23344.80881331 -.00064165  00000-0 -39290-2 0  9999,2 54201  53.2180  74.7075 0001312 115.5778 244.5350 15.09940107 62450,6914.52,95.368,537.292,535.478,0.0
54201.0,STARLINK-5199,PAYLOAD,2023-12-11 11:18:25,15.09504714,0.0001418,53.2176,71.7331,107.3154,252.7994,-0.0066849,-0.00107032,0.0,0 STARLINK-5199,1 54201U 22141AW  23345.47112720 -.00107032  00000-0 -66849-2 0  9993,2 54201  53.2176  71.7331 0001418 107.3154 252.7994 15.09504714 62557,6915.849,95.396,538.695,536.734,0.0
54201.0,STARLINK-5199,PAYLOAD,2023-12-11 22:00:01,15.08852614,0.0001235,53.2175,69.7319,89.2907,174.03,-0.0025674,-0.0004093,0.0,0 STARLINK-5199,1 54201U 22141AW  23345.91668981 -.00040930  00000-0 -25674-2 0  9991,2 54201  53.2175  69.7319 0001235  89.2907 174.0300 15.08852614  5828,6917.842,95.437,540.561,538.852,0.0
54201.0,STARLINK-5199,PAYLOAD,2023-12-12 06:00:00,15.08839901,0.0001304,53.2177,68.2352,97.7086,177.1402,0.0011414,0.00017924,0.0,0 STARLINK-5199,1 54201U 22141AW  23346.25001157  .00017924  00000-0  11414-2 0  9997,2 54201  53.2177  68.2352 0001304  97.7086 177.1402 15.08839901 62677,6917.881,95.438,540.648,538.844,0.0
54201.0,STARLINK-5199,PAYLOAD,2023-12-12 14:00:01,15.08833766,0.0001351,53.2175,66.7407,84.7928,201.661,-0.00044089,-7.297e-05,0.0,0 STARLINK-5199,1 54201U 22141AW  23346.58334491 -.00007297  00000-0 -44089-3 0  9992,2 54201  53.2175  66.7407 0001351  84.7928 201.6610 15.08833766  5812,6917.899,95.438,540.699,538.83,0.0
54201.0,STARLINK-5199,PAYLOAD,2023-12-12 22:00:00,15.08846871,0.0001307,53.2172,65.2433,89.0322,209.0071,-0.0012503,-0.00020135,0.0,0 STARLINK-5199,1 54201U 22141AW  23346.91667824 -.00020135  00000-0 -12503-2 0  9999,2 54201  53.2172  65.2433 0001307  89.0322 209.0071 15.08846871 62771,6917.859,95.437,540.629,538.82,0.0
54201.0,STARLINK-5199,PAYLOAD,2023-12-13 00:00:00,15.08828947,0.0001309,53.2173,64.8688,92.8143,298.131,0.0015599,0.00024617,0.0,0 STARLINK-5199,1 54201U 22141AW  23347.00001157  .00024617  00000-0  15599-2 0  9996,2 54201  53.2173  64.8688 0001309  92.8143 298.1310 15.08828947  5837,6917.914,95.438,540.685,538.874,0.0
54201.0,STARLINK-5199,PAYLOAD,2023-12-13 14:00:01,15.08843262,0.0001386,53.2171,62.252,89.2911,231.9619,-0.0021789,-0.00034801,0.0,0 STARLINK-5199,1 54201U 22141AW  23347.58334491 -.00034801  00000-0 -21789-2 0  9995,2 54201  53.2171  62.2520 0001386  89.2911 231.9619 15.08843262 62871,6917.87,95.437,540.694,538.777,0.0
